OBJECT_NAME,OBJECT_ID,EPOCH,MEAN_MOTION,ECCENTRICITY,INCLINATION,RA_OF_ASC_NODE,ARG_OF_PERICENTER,MEAN_ANOMALY,EPHEMERIS_TYPE,CLASSIFICATION_TYPE,NORAD_CAT_ID,ELEMENT_SET_NO,REV_AT_EPOCH,BSTAR,MEAN_MOTION_DOT,MEAN_MOTION_DDOT
JCSAT-3A,2006-033A,2026-06-26T06:19:05.261376,1.00272455,.00024376,0.0253,299.8880,160.4614,36.8118,0,U,29272,999,4783,0,-.334E-5,0
KOREASAT 5 (MUGUNGWHA 5),2006-034A,2026-06-25T21:41:31.574688,1.00270419,.00017787,1.8074,82.8979,52.1664,217.4080,0,U,29349,999,4140,0,-.349E-5,0
DIRECTV 9S,2006-043A,2026-06-26T05:13:42.343680,1.00271840,.00053946,2.4440,80.8031,18.1763,152.5900,0,U,29494,999,5147,0,-.105E-5,0
OPTUS D1,2006-043B,2026-06-26T04:43:12.484992,1.00271074,.00037267,3.0579,79.5531,7.5568,49.9852,0,U,29495,999,7221,0,-.175E-5,0
BADR-4,2006-051A,2026-06-25T19:36:28.048320,1.00276333,.00050443,2.0271,81.0376,5.5744,155.9463,0,U,29526,999,5135,0,.165E-5,0
WILDBLUE-1,2006-054A,2026-06-25T22:20:17.143872,1.00272808,.0001716,2.8256,80.3802,16.0789,41.4726,0,U,29643,999,5388,0,-.41E-6,0
SKYNET 5A,2007-007B,2026-06-26T02:44:27.669696,1.00271690,.00037154,5.3223,73.6341,26.1967,310.7498,0,U,30794,999,7078,0,-.265E-5,0
ANIK F3,2007-009A,2026-06-26T00:00:44.930592,1.00274733,.00029142,1.2203,83.7633,14.4879,57.3832,0,U,31102,999,4665,0,.8E-7,0
ASTRA 1L,2007-016A,2026-06-26T05:35:36.486816,1.00270588,.00056748,1.3451,81.5218,17.9204,234.3188,0,U,31306,999,4507,0,-.175E-5,0
GALAXY 17 (G-17),2007-016B,2026-06-26T07:04:01.400160,1.00271408,.00045715,2.9949,79.7928,19.0037,196.6208,0,U,31307,999,6989,0,-.198E-5,0
INTELSAT 11 (IS-11),2007-044B,2026-06-26T00:59:21.852960,0.99047894,.00029897,3.5884,78.5692,84.1881,213.1515,0,U,32253,999,6853,0,.11E-6,0
WGS F1 (USA 195),2007-046A,2026-06-25T15:48:58.031136,1.00274369,.00002754,0.0311,82.3880,345.3580,40.7845,0,U,32258,999,5242,0,-.257E-5,0
SKYNET 5B,2007-056B,2026-06-25T22:59:06.895680,1.00270495,.00034184,5.2738,73.4004,24.7807,185.7733,0,U,32294,999,6828,0,.146E-5,0
ASTRA 4A,2007-057A,2026-06-26T05:43:58.185696,1.00270993,.0002599,0.0197,319.9146,134.4596,270.7819,0,U,32299,999,5173,0,.43E-6,0
HORIZONS-2,2007-063B,2026-06-26T07:09:23.191776,1.00271500,.00041529,2.6254,80.5218,5.7728,221.6760,0,U,32388,999,6790,0,-.245E-5,0
THURAYA-3,2008-001A,2026-06-25T16:20:37.371840,1.00009028,.00018904,6.0035,35.8134,142.0341,49.0680,0,U,32404,999,6757,0,.26E-6,0
THOR 5,2008-006A,2026-06-26T05:42:20.841408,1.00271236,.00026929,0.0415,253.7425,203.5495,261.9052,0,U,32487,999,6740,0,.2E-7,0
AMC-14,2008-011A,2026-06-24T02:42:00.534816,1.00356055,.00451778,24.0123,20.4352,7.5191,352.4523,0,U,32708,999,6823,0,-.74E-6,0
DIRECTV 11,2008-013A,2026-06-25T19:33:00.023904,1.00273137,.000012,0.0131,250.3796,233.1459,344.4850,0,U,32729,999,4568,0,-.115E-5,0
ICO G1,2008-016A,2026-06-25T15:34:44.395680,1.00272736,.00023664,5.5281,36.1017,44.8991,333.6122,0,U,32763,999,6663,0,-.167E-5,0
VINASAT-1,2008-018A,2026-06-25T14:05:38.664384,1.00269039,.0001703,0.0253,301.7728,162.8997,152.3833,0,U,32767,999,6667,0,-.318E-5,0
STAR ONE C2,2008-018B,2026-06-26T07:13:05.680416,1.00271295,.00029331,1.2642,82.3961,21.0627,214.2444,0,U,32768,999,6674,0,-.267E-5,0
AMOS-3,2008-022A,2026-06-26T02:30:14.033376,1.00481961,.00024661,0.4784,86.1263,66.1724,205.0527,0,U,32794,999,8242,0,.123E-5,0
GALAXY 18 (G-18),2008-024A,2026-06-26T07:22:12.908640,1.00269748,.00032538,0.0245,12.4381,86.0983,163.4579,0,U,32951,999,4594,0,0,0
ZHONGXING-9,2008-028A,2026-06-26T04:58:03.442656,1.00271410,.00040496,0.7927,85.2617,352.8804,3.0952,0,U,33051,999,6612,0,-.238E-5,0
SKYNET 5C,2008-030A,2026-06-26T03:54:47.757600,1.00271910,.0004417,3.8118,76.9401,24.5848,213.6744,0,U,33055,999,6604,0,-.132E-5,0
TURKSAT 3A,2008-030B,2026-06-26T04:11:53.620224,1.00275816,.0005284,0.0334,69.1802,10.2288,299.8874,0,U,33056,999,5244,0,.157E-5,0
ECHOSTAR 11,2008-035A,2026-06-26T05:31:53.158368,1.00271953,.00027387,1.0285,84.0954,355.9629,167.4634,0,U,33207,999,5130,0,-.48E-6,0
SUPERBIRD-C2,2008-038A,2026-06-26T00:37:51.673728,1.00273016,.00064432,2.3838,81.1631,27.8017,310.6569,0,U,33274,999,10581,0,-.297E-5,0
INMARSAT 4-F3,2008-039A,2026-06-26T06:50:37.965696,1.00271473,.00026514,4.3008,31.6544,68.3690,179.0461,0,U,33278,999,4663,0,-.133E-5,0
NIMIQ 4,2008-044A,2026-06-26T03:34:38.794368,1.00270024,.00019525,0.0020,355.1568,113.3467,137.4192,0,U,33373,999,6507,0,-.209E-5,0
GALAXY 19 (G-19),2008-045A,2026-06-26T07:28:36.781248,1.00271333,.00028912,0.0432,261.1196,202.4022,186.0696,0,U,33376,999,6499,0,-.128E-5,0
