JCSAT-3A                
1 29272U 06033A   26177.26325534 -.00000334  00000+0  00000+0 0  9996
2 29272   0.0253 299.8880 0002437 160.4614  36.8118  1.00272455 47831
KOREASAT 5 (MUGUNGWHA 5)
1 29349U 06034A   26176.90383767 -.00000349  00000+0  00000+0 0  9990
2 29349   1.8074  82.8979 0001778  52.1664 217.4080  1.00270419 41404
DIRECTV 9S              
1 29494U 06043A   26177.21785120 -.00000105  00000+0  00000+0 0  9995
2 29494   2.4440  80.8031 0005394  18.1763 152.5900  1.00271840 51473
OPTUS D1                
1 29495U 06043B   26177.19667228 -.00000175  00000+0  00000+0 0  9998
2 29495   3.0579  79.5531 0003726   7.5568  49.9852  1.00271074 72215
BADR-4                  
1 29526U 06051A   26176.81699130  .00000165  00000+0  00000+0 0  9995
2 29526   2.0271  81.0376 0005044   5.5744 155.9463  1.00276333 51353
WILDBLUE-1              
1 29643U 06054A   26176.93075398 -.00000041  00000+0  00000+0 0  9999
2 29643   2.8256  80.3802 0001716  16.0789  41.4726  1.00272808 53882
SKYNET 5A               
1 30794U 07007B   26177.11420914 -.00000265  00000+0  00000+0 0  9994
2 30794   5.3223  73.6341 0003715  26.1967 310.7498  1.00271690 70781
ANIK F3                 
1 31102U 07009A   26177.00052003  .00000008  00000+0  00000+0 0  9992
2 31102   1.2203  83.7633 0002914  14.4879  57.3832  1.00274733 46652
ASTRA 1L                
1 31306U 07016A   26177.23306119 -.00000175  00000+0  00000+0 0  9997
2 31306   1.3451  81.5218 0005674  17.9204 234.3188  1.00270588 45075
GALAXY 17 (G-17)        
1 31307U 07016B   26177.29446065 -.00000198  00000+0  00000+0 0  9994
2 31307   2.9949  79.7928 0004571  19.0037 196.6208  1.00271408 69895
INTELSAT 11 (IS-11)     
1 32253U 07044B   26177.04122515  .00000011  00000+0  00000+0 0  9993
2 32253   3.5884  78.5692 0002989  84.1881 213.1515  0.99047894 68530
WGS F1 (USA 195)        
1 32258U 07046A   26176.65900499 -.00000257  00000+0  00000+0 0  9994
2 32258   0.0311  82.3880 0000275 345.3580  40.7845  1.00274369 52421
SKYNET 5B               
1 32294U 07056B   26176.95771870  .00000146  00000+0  00000+0 0  9993
2 32294   5.2738  73.4004 0003418  24.7807 185.7733  1.00270495 68285
ASTRA 4A                
1 32299U 07057A   26177.23886789  .00000043  00000+0  00000+0 0  9993
2 32299   0.0197 319.9146 0002599 134.4596 270.7819  1.00270993 51735
HORIZONS-2              
1 32388U 07063B   26177.29818509 -.00000245  00000+0  00000+0 0  9995
2 32388   2.6254  80.5218 0004152   5.7728 221.6760  1.00271500 67902
THURAYA-3               
1 32404U 08001A   26176.68098810  .00000026  00000+0  00000+0 0  9990
2 32404   6.0035  35.8134 0001890 142.0341  49.0680  1.00009028 67578
THOR 5                  
1 32487U 08006A   26177.23774122  .00000002  00000+0  00000+0 0  9999
2 32487   0.0415 253.7425 0002692 203.5495 261.9052  1.00271236 67405
AMC-14                  
1 32708U 08011A   26175.11250619 -.00000074  00000+0  00000+0 0  9996
2 32708  24.0123  20.4352 0045177   7.5191 352.4523  1.00356055 68235
DIRECTV 11              
1 32729U 08013A   26176.81458361 -.00000115  00000+0  00000+0 0  9999
2 32729   0.0131 250.3796 0000120 233.1459 344.4850  1.00273137 45687
ICO G1                  
1 32763U 08016A   26176.64912495 -.00000167  00000+0  00000+0 0  9991
2 32763   5.5281  36.1017 0002366  44.8991 333.6122  1.00272736 66633
VINASAT-1               
1 32767U 08018A   26176.58725306 -.00000318  00000+0  00000+0 0  9991
2 32767   0.0253 301.7728 0001703 162.8997 152.3833  1.00269039 66678
STAR ONE C2             
1 32768U 08018B   26177.30076019 -.00000267  00000+0  00000+0 0  9996
2 32768   1.2642  82.3961 0002933  21.0627 214.2444  1.00271295 66748
AMOS-3                  
1 32794U 08022A   26177.10432909  .00000123  00000+0  00000+0 0  9992
2 32794   0.4784  86.1263 0002466  66.1724 205.0527  1.00481961 82427
GALAXY 18 (G-18)        
1 32951U 08024A   26177.30709385  .00000000  00000+0  00000+0 0  9990
2 32951   0.0245  12.4381 0003253  86.0983 163.4579  1.00269748 45943
ZHONGXING-9             
1 33051U 08028A   26177.20698429 -.00000238  00000+0  00000+0 0  9995
2 33051   0.7927  85.2617 0004049 352.8804   3.0952  1.00271410 66125
SKYNET 5C               
1 33055U 08030A   26177.16305275 -.00000132  00000+0  00000+0 0  9994
2 33055   3.8118  76.9401 0004417  24.5848 213.6744  1.00271910 66047
TURKSAT 3A              
1 33056U 08030B   26177.17492616  .00000157  00000+0  00000+0 0  9998
2 33056   0.0334  69.1802 0005284  10.2288 299.8874  1.00275816 52447
ECHOSTAR 11             
1 33207U 08035A   26177.23047637 -.00000048  00000+0  00000+0 0  9997
2 33207   1.0285  84.0954 0002738 355.9629 167.4634  1.00271953 51300
SUPERBIRD-C2            
1 33274U 08038A   26177.02629252 -.00000297  00000+0  00000+0 0  9996
2 33274   2.3838  81.1631 0006443  27.8017 310.6569  1.00273016105812
INMARSAT 4-F3           
1 33278U 08039A   26177.28516164 -.00000133  00000+0  00000+0 0  9995
2 33278   4.3008  31.6544 0002651  68.3690 179.0461  1.00271473 46631
NIMIQ 4                 
1 33373U 08044A   26177.14906012 -.00000209  00000+0  00000+0 0  9991
2 33373   0.0020 355.1568 0001952 113.3467 137.4192  1.00270024 65079
GALAXY 19 (G-19)        
1 33376U 08045A   26177.31153682 -.00000128  00000+0  00000+0 0  9991
2 33376   0.0432 261.1196 0002891 202.4022 186.0696  1.00271333 64995
